[{"OBJECT_NAME":"OBJECT J","OBJECT_ID":"2023-085J","EPOCH":"2026-03-09T22:47:59.920512","MEAN_MOTION":15.31507187,"ECCENTRICITY":0.00067028,"INCLINATION":97.4828,"RA_OF_ASC_NODE":180.1819,"ARG_OF_PERICENTER":41.7877,"MEAN_ANOMALY":318.3875,"EPHEMERIS_TYPE":0,"CLASSIFICATION_TYPE":"U","NORAD_CAT_ID":57012,"ELEMENT_SET_NO":999,"REV_AT_EPOCH":15156,"BSTAR":0.00064525349,"MEAN_MOTION_DOT":0.00019595,"MEAN_MOTION_DDOT":0},{"OBJECT_NAME":"STARLINK-30700","OBJECT_ID":"2023-148U","EPOCH":"2026-03-09T23:34:44.787648","MEAN_MOTION":15.30185681,"ECCENTRICITY":0.00011054,"INCLINATION":53.1614,"RA_OF_ASC_NODE":12.8508,"ARG_OF_PERICENTER":66.1024,"MEAN_ANOMALY":294.0093,"EPHEMERIS_TYPE":0,"CLASSIFICATION_TYPE":"U","NORAD_CAT_ID":57953,"ELEMENT_SET_NO":999,"REV_AT_EPOCH":13860,"BSTAR":2.4725291e-5,"MEAN_MOTION_DOT":3.73e-6,"MEAN_MOTION_DDOT":0}]
